ORBCOMM FM24            
1 25478U 98053D   25115.92487036  .00001901  00000+0  66987-3 0  9993
2 25478  45.0058 156.8710 0003860 290.6689  69.3745 14.37959137389929
ORBCOMM FM25            
1 25479U 98053E   25115.82583084  .00001867  00000+0  65898-3 0  9994
2 25479  45.0050 155.6045 0005440 314.5087  45.5316 14.37933937390207
ORBCOMM FM26            
1 25480U 98053F   25115.80342833  .00001646  00000+0  59723-3 0  9994
2 25480  45.0053 151.7957 0006372 338.3271  21.7307 14.37014490390115
ORBCOMM FM27            
1 25481U 98053G   25115.81452616  .00001987  00000+0  69795-3 0  9995
2 25481  45.0033 155.8795 0002712 274.0769  85.9769 14.37959356390136
ORBCOMM FM28            
1 25482U 98053H   25115.92886905  .00002189  00000+0  76094-3 0  9995
2 25482  45.0041  92.9150 0004720   6.7895 353.3016 14.38165164390834
ORBCOMM FM30            
1 25980U 99065A   25115.86892406  .00002053  00000+0  73087-3 0  9997
2 25980  45.0322 337.3358 0006609 103.4835 256.6750 14.37181837326925
ORBCOMM FM31            
1 25981U 99065B   25115.90960566  .00001973  00000+0  70491-3 0  9992
2 25981  45.0232 330.6469 0003960 127.9539 232.1668 14.37130411326484
ORBCOMM FM32            
1 25982U 99065C   25115.64295113  .00001775  00000+0  65151-3 0  9990
2 25982  45.0166 348.1316 0005921 121.2308 238.9121 14.36163226327046
